CCSDS_OMM_VERS = 2.0
CREATION_DATE  = 
ORIGINATOR     = 

OBJECT_NAME    = SL-3 R/B
OBJECT_ID      = 1982-079B
CENTER_NAME    = EARTH
REF_FRAME      = TEME
TIME_SYSTEM    = UTC
MEAN_ELEMENT_THEORY = SGP/SGP4

EPOCH          = 2025-11-26T18:51:56.918880
MEAN_MOTION    = 15.23326441
ECCENTRICITY   = .0026299
INCLINATION    = 81.1464
RA_OF_ASC_NODE = 314.4642
ARG_OF_PERICENTER = 150.5216
MEAN_ANOMALY   = 209.7507

EPHEMERIS_TYPE = 0
CLASSIFICATION_TYPE = U
NORAD_CAT_ID   = 13403
ELEMENT_SET_NO = 999
REV_AT_EPOCH   = 36202
BSTAR          = .28555E-3
MEAN_MOTION_DOT = .687E-4
MEAN_MOTION_DDOT = 0

CCSDS_OMM_VERS = 2.0
CREATION_DATE  = 
ORIGINATOR     = 

OBJECT_NAME    = SL-14 R/B
OBJECT_ID      = 1982-092B
CENTER_NAME    = EARTH
REF_FRAME      = TEME
TIME_SYSTEM    = UTC
MEAN_ELEMENT_THEORY = SGP/SGP4

EPOCH          = 2025-11-26T19:05:57.367104
MEAN_MOTION    = 14.86530588
ECCENTRICITY   = .0018847
INCLINATION    = 82.5691
RA_OF_ASC_NODE = 237.6212
ARG_OF_PERICENTER = 284.1189
MEAN_ANOMALY   = 141.6828

EPHEMERIS_TYPE = 0
CLASSIFICATION_TYPE = U
NORAD_CAT_ID   = 13553
ELEMENT_SET_NO = 999
REV_AT_EPOCH   = 31364
BSTAR          = .74453E-4
MEAN_MOTION_DOT = .685E-5
MEAN_MOTION_DDOT = 0

CCSDS_OMM_VERS = 2.0
CREATION_DATE  = 
ORIGINATOR     = 

OBJECT_NAME    = SL-3 R/B
OBJECT_ID      = 1983-010B
CENTER_NAME    = EARTH
REF_FRAME      = TEME
TIME_SYSTEM    = UTC
MEAN_ELEMENT_THEORY = SGP/SGP4

EPOCH          = 2025-11-26T11:54:40.360608
MEAN_MOTION    = 15.42848456
ECCENTRICITY   = .0017953
INCLINATION    = 81.1031
RA_OF_ASC_NODE = 128.4366
ARG_OF_PERICENTER = 47.1427
MEAN_ANOMALY   = 313.1320

EPHEMERIS_TYPE = 0
CLASSIFICATION_TYPE = U
NORAD_CAT_ID   = 13819
ELEMENT_SET_NO = 999
REV_AT_EPOCH   = 34201
BSTAR          = .32159E-3
MEAN_MOTION_DOT = .14218E-3
MEAN_MOTION_DDOT = 0

CCSDS_OMM_VERS = 2.0
CREATION_DATE  = 
ORIGINATOR     = 

OBJECT_NAME    = SL-3 R/B
OBJECT_ID      = 1983-075B
CENTER_NAME    = EARTH
REF_FRAME      = TEME
TIME_SYSTEM    = UTC
MEAN_ELEMENT_THEORY = SGP/SGP4

EPOCH          = 2025-11-26T19:48:30.444768
MEAN_MOTION    = 15.35678067
ECCENTRICITY   = .0021152
INCLINATION    = 97.6109
RA_OF_ASC_NODE = 326.7804
ARG_OF_PERICENTER = 234.6252
MEAN_ANOMALY   = 125.3015

EPHEMERIS_TYPE = 0
CLASSIFICATION_TYPE = U
NORAD_CAT_ID   = 14208
ELEMENT_SET_NO = 999
REV_AT_EPOCH   = 31435
BSTAR          = .35368E-3
MEAN_MOTION_DOT = .12279E-3
MEAN_MOTION_DDOT = 0

CCSDS_OMM_VERS = 2.0
CREATION_DATE  = 
ORIGINATOR     = 

OBJECT_NAME    = COSMOS 1536
OBJECT_ID      = 1984-013A
CENTER_NAME    = EARTH
REF_FRAME      = TEME
TIME_SYSTEM    = UTC
MEAN_ELEMENT_THEORY = SGP/SGP4

EPOCH          = 2025-11-26T16:52:08.660064
MEAN_MOTION    = 15.22265574
ECCENTRICITY   = .0013313
INCLINATION    = 82.5459
RA_OF_ASC_NODE = 210.0636
ARG_OF_PERICENTER = 288.9869
MEAN_ANOMALY   = 70.9924

EPHEMERIS_TYPE = 0
CLASSIFICATION_TYPE = U
NORAD_CAT_ID   = 14699
ELEMENT_SET_NO = 999
REV_AT_EPOCH   = 25694
BSTAR          = .29846E-3
MEAN_MOTION_DOT = .6914E-4
MEAN_MOTION_DDOT = 0

CCSDS_OMM_VERS = 2.0
CREATION_DATE  = 
ORIGINATOR     = 

OBJECT_NAME    = SL-14 R/B
OBJECT_ID      = 1984-027B
CENTER_NAME    = EARTH
REF_FRAME      = TEME
TIME_SYSTEM    = UTC
MEAN_ELEMENT_THEORY = SGP/SGP4

EPOCH          = 2025-11-26T12:40:15.555648
MEAN_MOTION    = 14.85848462
ECCENTRICITY   = .0016911
INCLINATION    = 82.5414
RA_OF_ASC_NODE = 341.7612
ARG_OF_PERICENTER = 319.1413
MEAN_ANOMALY   = 40.8534

EPHEMERIS_TYPE = 0
CLASSIFICATION_TYPE = U
NORAD_CAT_ID   = 14820
ELEMENT_SET_NO = 999
REV_AT_EPOCH   = 23231
BSTAR          = .69622E-4
MEAN_MOTION_DOT = .631E-5
MEAN_MOTION_DDOT = 0

CCSDS_OMM_VERS = 2.0
CREATION_DATE  = 
ORIGINATOR     = 

OBJECT_NAME    = SL-8 R/B
OBJECT_ID      = 1985-006B
CENTER_NAME    = EARTH
REF_FRAME      = TEME
TIME_SYSTEM    = UTC
MEAN_ELEMENT_THEORY = SGP/SGP4

EPOCH          = 2025-11-26T18:09:25.805088
MEAN_MOTION    = 14.37706505
ECCENTRICITY   = .0017992
INCLINATION    = 74.0455
RA_OF_ASC_NODE = 90.5397
ARG_OF_PERICENTER = 27.4542
MEAN_ANOMALY   = 81.6181

EPHEMERIS_TYPE = 0
CLASSIFICATION_TYPE = U
NORAD_CAT_ID   = 15483
ELEMENT_SET_NO = 999
REV_AT_EPOCH   = 13923
BSTAR          = .13309E-3
MEAN_MOTION_DOT = .375E-5
MEAN_MOTION_DDOT = 0

CCSDS_OMM_VERS = 2.0
CREATION_DATE  = 
ORIGINATOR     = 

OBJECT_NAME    = SL-12 R/B(2)
OBJECT_ID      = 1985-042D
CENTER_NAME    = EARTH
REF_FRAME      = TEME
TIME_SYSTEM    = UTC
MEAN_ELEMENT_THEORY = SGP/SGP4

EPOCH          = 2025-11-26T15:48:02.628000
MEAN_MOTION    = 14.21944110
ECCENTRICITY   = .0037664
INCLINATION    = 71.1080
RA_OF_ASC_NODE = 305.3939
ARG_OF_PERICENTER = 285.0433
MEAN_ANOMALY   = 248.6901

EPHEMERIS_TYPE = 0
CLASSIFICATION_TYPE = U
NORAD_CAT_ID   = 15772
ELEMENT_SET_NO = 999
REV_AT_EPOCH   = 9974
BSTAR          = .10524E-3
MEAN_MOTION_DOT = .186E-5
MEAN_MOTION_DDOT = 0

CCSDS_OMM_VERS = 2.0
CREATION_DATE  = 
ORIGINATOR     = 

OBJECT_NAME    = SL-14 R/B
OBJECT_ID      = 1985-069B
CENTER_NAME    = EARTH
REF_FRAME      = TEME
TIME_SYSTEM    = UTC
MEAN_ELEMENT_THEORY = SGP/SGP4

EPOCH          = 2025-11-26T19:31:13.826208
MEAN_MOTION    = 14.86294921
ECCENTRICITY   = .0019094
INCLINATION    = 82.5250
RA_OF_ASC_NODE = 121.6754
ARG_OF_PERICENTER = 168.8729
MEAN_ANOMALY   = 191.2913

EPHEMERIS_TYPE = 0
CLASSIFICATION_TYPE = U
NORAD_CAT_ID   = 15945
ELEMENT_SET_NO = 999
REV_AT_EPOCH   = 15755
BSTAR          = .80316E-4
MEAN_MOTION_DOT = .733E-5
MEAN_MOTION_DDOT = 0

CCSDS_OMM_VERS = 2.0
CREATION_DATE  = 
ORIGINATOR     = 

OBJECT_NAME    = SL-16 R/B
OBJECT_ID      = 1985-097B
CENTER_NAME    = EARTH
REF_FRAME      = TEME
TIME_SYSTEM    = UTC
MEAN_ELEMENT_THEORY = SGP/SGP4

EPOCH          = 2025-11-26T13:10:05.596896
MEAN_MOTION    = 14.16582498
ECCENTRICITY   = .0005768
INCLINATION    = 71.0040
RA_OF_ASC_NODE = 357.6912
ARG_OF_PERICENTER = 38.0791
MEAN_ANOMALY   = 75.4727

EPHEMERIS_TYPE = 0
CLASSIFICATION_TYPE = U
NORAD_CAT_ID   = 16182
ELEMENT_SET_NO = 999
REV_AT_EPOCH   = 7262
BSTAR          = .31837E-4
MEAN_MOTION_DOT = .16E-6
MEAN_MOTION_DDOT = 0

CCSDS_OMM_VERS = 2.0
CREATION_DATE  = 
ORIGINATOR     = 

OBJECT_NAME    = SL-14 R/B
OBJECT_ID      = 1986-006B
CENTER_NAME    = EARTH
REF_FRAME      = TEME
TIME_SYSTEM    = UTC
MEAN_ELEMENT_THEORY = SGP/SGP4

EPOCH          = 2025-11-26T13:06:32.081760
MEAN_MOTION    = 14.86638694
ECCENTRICITY   = .0075248
INCLINATION    = 82.5273
RA_OF_ASC_NODE = 356.7893
ARG_OF_PERICENTER = 254.2969
MEAN_ANOMALY   = 104.9938

EPHEMERIS_TYPE = 0
CLASSIFICATION_TYPE = U
NORAD_CAT_ID   = 16496
ELEMENT_SET_NO = 999
REV_AT_EPOCH   = 13388
BSTAR          = .89998E-4
MEAN_MOTION_DOT = .866E-5
MEAN_MOTION_DDOT = 0

CCSDS_OMM_VERS = 2.0
CREATION_DATE  = 
ORIGINATOR     = 

OBJECT_NAME    = COSMOS 1743
OBJECT_ID      = 1986-034A
CENTER_NAME    = EARTH
REF_FRAME      = TEME
TIME_SYSTEM    = UTC
MEAN_ELEMENT_THEORY = SGP/SGP4

EPOCH          = 2025-11-26T15:50:13.462656
MEAN_MOTION    = 15.51044324
ECCENTRICITY   = .0005382
INCLINATION    = 82.5356
RA_OF_ASC_NODE = 181.2779
ARG_OF_PERICENTER = 324.9028
MEAN_ANOMALY   = 35.1868

EPHEMERIS_TYPE = 0
CLASSIFICATION_TYPE = U
NORAD_CAT_ID   = 16719
ELEMENT_SET_NO = 999
REV_AT_EPOCH   = 16424
BSTAR          = .50195E-3
MEAN_MOTION_DOT = .2929E-3
MEAN_MOTION_DDOT = 0

