SL-3 R/B                
1 13403U 82079B   25330.78607545  .00006870  00000+0  28555-3 0  9990
2 13403  81.1464 314.4642 0026299 150.5216 209.7507 15.23326441362023
SL-14 R/B               
1 13553U 82092B   25330.79580286  .00000685  00000+0  74453-4 0  9991
2 13553  82.5691 237.6212 0018847 284.1189 141.6828 14.86530588313649
SL-3 R/B                
1 13819U 83010B   25330.49630047  .00014218  00000+0  32159-3 0  9998
2 13819  81.1031 128.4366 0017953  47.1427 313.1320 15.42848456342018
SL-3 R/B                
1 14208U 83075B   25330.82535237  .00012279  00000+0  35368-3 0  9994
2 14208  97.6109 326.7804 0021152 234.6252 125.3015 15.35678067314355
COSMOS 1536             
1 14699U 84013A   25330.70287801  .00006914  00000+0  29846-3 0  9992
2 14699  82.5459 210.0636 0013313 288.9869  70.9924 15.22265574256949
SL-14 R/B               
1 14820U 84027B   25330.52795782  .00000631  00000+0  69622-4 0  9992
2 14820  82.5414 341.7612 0016911 319.1413  40.8534 14.85848462232310
SL-8 R/B                
1 15483U 85006B   25330.75654867  .00000375  00000+0  13309-3 0  9994
2 15483  74.0455  90.5397 0017992  27.4542  81.6181 14.37706505139234
SL-12 R/B(2)            
1 15772U 85042D   25330.65836375  .00000186  00000+0  10524-3 0  9996
2 15772  71.1080 305.3939 0037664 285.0433 248.6901 14.21944110 99740
SL-14 R/B               
1 15945U 85069B   25330.81335447  .00000733  00000+0  80316-4 0  9994
2 15945  82.5250 121.6754 0019094 168.8729 191.2913 14.86294921157553
SL-16 R/B               
1 16182U 85097B   25330.54867589  .00000016  00000+0  31837-4 0  9994
2 16182  71.0040 357.6912 0005768  38.0791  75.4727 14.16582498 72626
SL-14 R/B               
1 16496U 86006B   25330.54620465  .00000866  00000+0  89998-4 0  9997
2 16496  82.5273 356.7893 0075248 254.2969 104.9938 14.86638694133881
COSMOS 1743             
1 16719U 86034A   25330.65987804  .00029290  00000+0  50195-3 0  9999
2 16719  82.5356 181.2779 0005382 324.9028  35.1868 15.51044324164243
